IRIDIUM 63              
1 25286U 98021B   25150.20832853  .00000465  00000+0  15173-3 0  9991
2 25286  86.3970  89.6742 0002249  81.3946 278.7505 14.36532651421537
IRIDIUM 69              
1 25319U 98026A   25149.92886667  .00000503  00000+0  15058-3 0  9997
2 25319  86.3959 103.1383 0004685  85.1642 275.0092 14.40949550420439
IRIDIUM 71              
1 25320U 98026B   25149.93811247  .00000446  00000+0  13223-3 0  9990
2 25320  86.3959  97.8273 0003846 115.0387 245.1212 14.41143619420968
IRIDIUM 73              
1 25344U 98032C   25150.20933892  .00000639  00000+0  15427-3 0  9998
2 25344  86.4425  54.4516 0002895  78.4335 281.7196 14.51696372428257
IRIDIUM 82              
1 25467U 98051A   25149.93338726  .00033979  00000+0  99254-3 0  9991
2 25467  86.3662 118.7087 0086705   8.5449 351.7250 15.31405982421160
